start=new Date('2021-11-09T00:00:00.000Z').valueOf();
sats=[{"OBJECT_ID":"2020-012AY","GP_ID":"189270156","MEAN_ELEMENT_THEORY":"SGP4","CENTER_NAME":"EARTH","MEAN_MOTION_DDOT":"0.0000000000000","MEAN_MOTION":"15.68008703","ARG_OF_PERICENTER":"288.2126","REV_AT_EPOCH":"9772","REF_FRAME":"TEME","SEMIMAJOR_AXIS":"6742.737","COUNTRY_CODE":"US","PERIAPSIS":"359.634","TIME_SYSTEM":"UTC","NORAD_CAT_ID":"45224","EPOCH":"2021-11-08T03:03:00.360000","INCLINATION":"53.0487","EPHEMERIS_TYPE":"0","APOAPSIS":"369.569","OBJECT_NAME":"STARLINK-1214","PERIOD":"91.836","TLE_LINE2":"2 45224  53.0487 201.8816 0007367 288.2126  71.8087 15.68008703 97728","RCS_SIZE":"LARGE","RA_OF_ASC_NODE":"201.8816","SITE":"AFETR","BSTAR":"0.00005974600000","FILE":"3209238","ECCENTRICITY":"0.00073670","MEAN_MOTION_DOT":"0.00006180","DECAY_DATE":null,"OBJECT_TYPE":"PAYLOAD","ELEMENT_SET_NO":"999","LAUNCH_DATE":"2020-02-17","TLE_LINE1":"1 45224U 20012AY  21312.12708750  .00006180  00000-0  59746-4 0  9991","MEAN_ANOMALY":"71.8087","CLASSIFICATION_TYPE":"U"},{"SITE":"AFETR","BSTAR":"0.00008282100000","MEAN_MOTION_DOT":"0.00000952","FILE":"3209238","ECCENTRICITY":"0.00015260","DECAY_DATE":null,"OBJECT_TYPE":"PAYLOAD","ELEMENT_SET_NO":"999","TLE_LINE1":"1 45225U 20012AZ  21312.39571770  .00000952  00000-0  82821-4 0  9992","LAUNCH_DATE":"2020-02-17","MEAN_ANOMALY":"292.4812","CLASSIFICATION_TYPE":"U","CENTER_NAME":"EARTH","MEAN_MOTION_DDOT":"0.0000000000000","GP_ID":"189269907","MEAN_ELEMENT_THEORY":"SGP4","OBJECT_ID":"2020-012AZ","ARG_OF_PERICENTER":"67.6339","MEAN_MOTION":"15.06389343","REV_AT_EPOCH":"9686","REF_FRAME":"TEME","SEMIMAJOR_AXIS":"6925.381","TIME_SYSTEM":"UTC","EPOCH":"2021-11-08T09:29:50.009280","NORAD_CAT_ID":"45225","PERIAPSIS":"546.189","COUNTRY_CODE":"US","APOAPSIS":"548.303","EPHEMERIS_TYPE":"0","INCLINATION":"53.0543","TLE_LINE2":"2 45225  53.0543 269.8052 0001526  67.6339 292.4812 15.06389343 96869","PERIOD":"95.593","OBJECT_NAME":"STARLINK-1215","RA_OF_ASC_NODE":"269.8052","RCS_SIZE":"LARGE"},{"LAUNCH_DATE":"2020-02-17","TLE_LINE1":"1 45226U 20012BA  21312.86751396  .00000347  00000-0  42166-4 0  9995","ELEMENT_SET_NO":"999","CLASSIFICATION_TYPE":"U","MEAN_ANOMALY":"293.6513","ECCENTRICITY":"0.00014860","FILE":"3209620","MEAN_MOTION_DOT":"0.00000347","BSTAR":"0.00004216600000","SITE":"AFETR","OBJECT_TYPE":"PAYLOAD","DECAY_DATE":null,"APOAPSIS":"548.258","INCLINATION":"53.0539","EPHEMERIS_TYPE":"0","COUNTRY_CODE":"US","PERIAPSIS":"546.200","NORAD_CAT_ID":"45226","EPOCH":"2021-11-08T20:49:13.206144","TIME_SYSTEM":"UTC","RCS_SIZE":"LARGE","RA_OF_ASC_NODE":"267.6917","PERIOD":"95.592","OBJECT_NAME":"STARLINK-1217","TLE_LINE2":"2 45226  53.0539 267.6917 0001486  66.4632 293.6513 15.06394885 96890","ARG_OF_PERICENTER":"66.4632","REV_AT_EPOCH":"9689","MEAN_MOTION":"15.06394885","OBJECT_ID":"2020-012BA","MEAN_MOTION_DDOT":"0.0000000000000","CENTER_NAME":"EARTH","GP_ID":"189301144","MEAN_ELEMENT_THEORY":"SGP4","SEMIMAJOR_AXIS":"6925.364","REF_FRAME":"TEME"},{"TLE_LINE1":"1 45227U 20012BB  21312.62424699  .00007375  00000-0  51348-3 0  9992","LAUNCH_DATE":"2020-02-17","ELEMENT_SET_NO":"999","CLASSIFICATION_TYPE":"U","MEAN_ANOMALY":"297.7465","MEAN_MOTION_DOT":"0.00007375","FILE":"3209620","ECCENTRICITY":"0.00016080","SITE":"AFETR","BSTAR":"0.00051348000000","OBJECT_TYPE":"PAYLOAD","DECAY_DATE":null,"EPHEMERIS_TYPE":"0","INCLINATION":"53.0526","APOAPSIS":"548.319","NORAD_CAT_ID":"45227","TIME_SYSTEM":"UTC","EPOCH":"2021-11-08T14:58:54.939936","PERIAPSIS":"546.092","COUNTRY_CODE":"US","RA_OF_ASC_NODE":"268.7963","RCS_SIZE":"LARGE","TLE_LINE2":"2 45227  53.0526 268.7963 0001608  62.3687 297.7465 15.06402566 96865","OBJECT_NAME":"STARLINK-1221","PERIOD":"95.592","MEAN_MOTION":"15.06402566","REV_AT_EPOCH":"9686","ARG_OF_PERICENTER":"62.3687","GP_ID":"189301894","MEAN_ELEMENT_THEORY":"SGP4","CENTER_NAME":"EARTH","MEAN_MOTION_DDOT":"0.0000000000000","OBJECT_ID":"2020-012BB","SEMIMAJOR_AXIS":"6925.341","REF_FRAME":"TEME"},{"OBJECT_TYPE":"PAYLOAD","DECAY_DATE":null,"MEAN_MOTION_DOT":"0.00009011","FILE":"3209620","ECCENTRICITY":"0.00013170","BSTAR":"0.00062300000000","SITE":"AFETR","CLASSIFICATION_TYPE":"U","MEAN_ANOMALY":"288.7852","TLE_LINE1":"1 45228U 20012BC  21312.82698569  .00009011  00000-0  62300-3 0  9993","LAUNCH_DATE":"2020-02-17","ELEMENT_SET_NO":"999","SEMIMAJOR_AXIS":"6925.339","REF_FRAME":"TEME","MEAN_MOTION":"15.06403219","REV_AT_EPOCH":"9686","ARG_OF_PERICENTER":"71.3280","MEAN_ELEMENT_THEORY":"SGP4","GP_ID":"189300642","CENTER_NAME":"EARTH","MEAN_MOTION_DDOT":"0.0000000000000","OBJECT_ID":"2020-012BC","RA_OF_ASC_NODE":"267.8713","RCS_SIZE":"LARGE","TLE_LINE2":"2 45228  53.0539 267.8713 0001317  71.3280 288.7852 15.06403219 96865","OBJECT_NAME":"STARLINK-1222","PERIOD":"95.592","EPHEMERIS_TYPE":"0","INCLINATION":"53.0539","APOAPSIS":"548.116","TIME_SYSTEM":"UTC","EPOCH":"2021-11-08T19:50:51.563616","NORAD_CAT_ID":"45228","COUNTRY_CODE":"US","PERIAPSIS":"546.292"},{"CLASSIFICATION_TYPE":"U","MEAN_ANOMALY":"292.7877","TLE_LINE1":"1 45229U 20012BD  21312.85647259  .00001873  00000-0  14465-3 0  9994","LAUNCH_DATE":"2020-02-17","ELEMENT_SET_NO":"999","OBJECT_TYPE":"PAYLOAD","DECAY_DATE":null,"MEAN_MOTION_DOT":"0.00001873","ECCENTRICITY":"0.00015820","FILE":"3209620","BSTAR":"0.00014465000000","SITE":"AFETR","RA_OF_ASC_NODE":"267.7353","RCS_SIZE":"LARGE","TLE_LINE2":"2 45229  53.0557 267.7353 0001582  67.3279 292.7877 15.06380378 96875","PERIOD":"95.593","OBJECT_NAME":"STARLINK-1226","APOAPSIS":"548.369","INCLINATION":"53.0557","EPHEMERIS_TYPE":"0","TIME_SYSTEM":"UTC","NORAD_CAT_ID":"45229","EPOCH":"2021-11-08T20:33:19.231776","PERIAPSIS":"546.178","COUNTRY_CODE":"US","SEMIMAJOR_AXIS":"6925.409","REF_FRAME":"TEME","MEAN_MOTION":"15.06380378","ARG_OF_PERICENTER":"67.3279","REV_AT_EPOCH":"9687","MEAN_MOTION_DDOT":"0.0000000000000","CENTER_NAME":"EARTH","GP_ID":"189300892","MEAN_ELEMENT_THEORY":"SGP4","OBJECT_ID":"2020-012BD"},{"ELEMENT_SET_NO":"999","TLE_LINE1":"1 45230U 20012BE  21312.85276650  .00000351  00000-0  42453-4 0  9998","LAUNCH_DATE":"2020-02-17","MEAN_ANOMALY":"285.6255","CLASSIFICATION_TYPE":"U","SITE":"AFETR","BSTAR":"0.00004245300000","MEAN_MOTION_DOT":"0.00000351","FILE":"3209620","ECCENTRICITY":"0.00014350","DECAY_DATE":null,"OBJECT_TYPE":"PAYLOAD","EPOCH":"2021-11-08T20:27:59.025600","TIME_SYSTEM":"UTC","NORAD_CAT_ID":"45230","COUNTRY_CODE":"US","PERIAPSIS":"546.220","INCLINATION":"53.0542","EPHEMERIS_TYPE":"0","APOAPSIS":"548.207","TLE_LINE2":"2 45230  53.0542 267.7583 0001435  74.4893 285.6255 15.06399993 96991","OBJECT_NAME":"STARLINK-1227","PERIOD":"95.592","RA_OF_ASC_NODE":"267.7583","RCS_SIZE":"LARGE","MEAN_ELEMENT_THEORY":"SGP4","GP_ID":"189301644","CENTER_NAME":"EARTH","MEAN_MOTION_DDOT":"0.0000000000000","OBJECT_ID":"2020-012BE","REV_AT_EPOCH":"9699","MEAN_MOTION":"15.06399993","ARG_OF_PERICENTER":"74.4893","REF_FRAME":"TEME","SEMIMAJOR_AXIS":"6925.349"},{"OBJECT_NAME":"STARLINK-1229","PERIOD":"91.531","TLE_LINE2":"2 45231  53.0306 207.5267 0004182 339.1687  20.9160 15.73230981 97637","RCS_SIZE":"LARGE","RA_OF_ASC_NODE":"207.5267","PERIAPSIS":"346.858","COUNTRY_CODE":"US","NORAD_CAT_ID":"45231","EPOCH":"2021-11-08T03:25:24.981600","TIME_SYSTEM":"UTC","INCLINATION":"53.0306","EPHEMERIS_TYPE":"0","APOAPSIS":"352.485","REF_FRAME":"TEME","SEMIMAJOR_AXIS":"6727.807","OBJECT_ID":"2020-012BF","MEAN_ELEMENT_THEORY":"SGP4","GP_ID":"189268906","CENTER_NAME":"EARTH","MEAN_MOTION_DDOT":"0.0000000000000","REV_AT_EPOCH":"9763","ARG_OF_PERICENTER":"339.1687","MEAN_MOTION":"15.73230981","MEAN_ANOMALY":"20.9160","CLASSIFICATION_TYPE":"U","ELEMENT_SET_NO":"999","LAUNCH_DATE":"2020-02-17","TLE_LINE1":"1 45231U 20012BF  21312.14265025  .00032167  00000-0  23231-3 0  9997","DECAY_DATE":null,"OBJECT_TYPE":"PAYLOAD","SITE":"AFETR","BSTAR":"0.00023231000000","ECCENTRICITY":"0.00041820","FILE":"3209238","MEAN_MOTION_DOT":"0.00032167"},{"RA_OF_ASC_NODE":"269.7916","RCS_SIZE":"LARGE","TLE_LINE2":"2 45232  53.0537 269.7916 0001353  71.9985 288.1151 15.06388553 96917","PERIOD":"95.593","OBJECT_NAME":"STARLINK-1235","APOAPSIS":"548.186","EPHEMERIS_TYPE":"0","INCLINATION":"53.0537","EPOCH":"2021-11-08T09:35:09.646944","TIME_SYSTEM":"UTC","NORAD_CAT_ID":"45232","PERIAPSIS":"546.312","COUNTRY_CODE":"US","SEMIMAJOR_AXIS":"6925.384","REF_FRAME":"TEME","MEAN_MOTION":"15.06388553","REV_AT_EPOCH":"9691","ARG_OF_PERICENTER":"71.9985","CENTER_NAME":"EARTH","MEAN_MOTION_DDOT":"0.0000000000000","GP_ID":"189270157","MEAN_ELEMENT_THEORY":"SGP4","OBJECT_ID":"2020-012BG","CLASSIFICATION_TYPE":"U","MEAN_ANOMALY":"288.1151","TLE_LINE1":"1 45232U 20012BG  21312.39941721  .00003031  00000-0  22232-3 0  9997","LAUNCH_DATE":"2020-02-17","ELEMENT_SET_NO":"999","OBJECT_TYPE":"PAYLOAD","DECAY_DATE":null,"MEAN_MOTION_DOT":"0.00003031","ECCENTRICITY":"0.00013530","FILE":"3209238","SITE":"AFETR","BSTAR":"0.00022232000000"},{"OBJECT_TYPE":"PAYLOAD","DECAY_DATE":null,"FILE":"3209620","ECCENTRICITY":"0.00015810","MEAN_MOTION_DOT":"0.00007111","BSTAR":"0.00049579000000","SITE":"AFETR","CLASSIFICATION_TYPE":"U","MEAN_ANOMALY":"293.6031","LAUNCH_DATE":"2020-02-17","TLE_LINE1":"1 45233U 20012BH  21312.64452169  .00007111  00000-0  49579-3 0  9995","ELEMENT_SET_NO":"999","SEMIMAJOR_AXIS":"6925.344","REF_FRAME":"TEME","MEAN_MOTION":"15.06401326","REV_AT_EPOCH":"9665","ARG_OF_PERICENTER":"66.5124","OBJECT_ID":"2020-012BH","MEAN_MOTION_DDOT":"0.0000000000000","CENTER_NAME":"EARTH","GP_ID":"189300393","MEAN_ELEMENT_THEORY":"SGP4","RCS_SIZE":"LARGE","RA_OF_ASC_NODE":"288.6872","PERIOD":"95.592","OBJECT_NAME":"STARLINK-1238","TLE_LINE2":"2 45233  53.0551 288.6872 0001581  66.5124 293.6031 15.06401326 96656","APOAPSIS":"548.304","INCLINATION":"53.0551","EPHEMERIS_TYPE":"0","COUNTRY_CODE":"US","PERIAPSIS":"546.115","NORAD_CAT_ID":"45233","TIME_SYSTEM":"UTC","EPOCH":"2021-11-08T15:28:06.674016"}];
